0 COSMOS 2322
1 23704U 95058A   13282.74172551  .00000348  00000-0  21092-3 0  8464
2 23704 070.9882 345.5497 0010646 325.1220 173.4084 14.13198506925608
0 COSMOS 2322
1 23704U 95058A   13284.13453449  .00000367  00000-0  22111-3 0  8472
2 23704 070.9882 342.6316 0010773 323.2619 059.0990 14.13199675925803
0 COSMOS 2322
1 23704U 95058A   13285.42046725  .00000348  00000-0  21136-3 0  8486
2 23704 070.9882 339.9373 0010873 321.5760 121.0482 14.13200591925989
0 COSMOS 2322
1 23704U 95058A   13286.48452400  .00000347  00000-0  21057-3 0  8496
2 23704 070.9880 337.7079 0010934 320.2148 134.2131 14.13201564926136
0 COSMOS 2322
1 23704U 95058A   13287.69646355  .00000337  00000-0  20512-3 0  8500
2 23704 070.9879 335.1684 0011018 318.6193 179.7488 14.13202795926308
0 COSMOS 2322
1 23704U 95058A   13289.08894645  .00000309  00000-0  19059-3 0  8516
2 23704 070.9878 332.2507 0011121 316.7982 063.7618 14.13204269926506
0 COSMOS 2322
1 23704U 95058A   13290.29859750  .00000292  00000-0  18100-3 0  8527
2 23704 070.9878 329.7160 0011207 315.2263 097.6468 14.13205396926672
0 COSMOS 2322
1 23704U 95058A   13291.51159185  .00000276  00000-0  17257-3 0  8533
2 23704 070.9878 327.1743 0011313 313.6926 148.5021 14.13206397926849
0 COSMOS 2322
1 23704U 95058A   13292.51591832  .00000277  00000-0  17308-3 0  8542
2 23704 070.9879 325.0698 0011375 312.3836 217.8464 14.13207251926986
0 COSMOS 2322
1 23704U 95058A   13293.64213493  .00000267  00000-0  16774-3 0  8557
2 23704 070.9880 322.7099 0011491 310.9703 187.2344 14.13208034927149
0 COSMOS 2322
1 23704U 95058A   13295.11288264  .00000244  00000-0  15544-3 0  8569
2 23704 070.9880 319.6281 0011605 309.1196 109.3612 14.13209056927351
0 COSMOS 2322
1 23704U 95058A   13296.17508155  .00000220  00000-0  14284-3 0  8575
2 23704 070.9880 317.4024 0011664 307.7311 113.1353 14.13209698927504
